{
  "type": "FeatureCollection",
  "features": [
    {
      "type": "Feature",
      "properties": {
        "norad_id": 33860,
        "name": "IRIDIUM 33 DEB",
        "group": "iridium-33-debris",
        "lat": 11.87860743871821,
        "lon": -154.4634955220975,
        "alt_km": 675.8827468474583,
        "timestamp": "2025-12-14T20:40:32.157352+00:00",
        "meta_object_name": "IRIDIUM 33 DEB",
        "meta_object_id": "1997-051AD",
        "meta_epoch": "2025-12-14T03:48:37.595808",
        "meta_mean_motion": 14.6739468,
        "meta_eccentricity": 0.00072274,
        "meta_inclination": 86.3831,
        "meta_ra_of_asc_node": 26.6098,
        "meta_arg_of_pericenter": 352.9674,
        "meta_mean_anomaly": 65.2403,
        "meta_ephemeris_type": 0,
        "meta_classification_type": "U",
        "meta_norad_cat_id": 33860,
        "meta_element_set_no": 999,
        "meta_rev_at_epoch": 88743,
        "meta_bstar": 0.0012019374,
        "meta_mean_motion_dot": 6.818e-05,
        "meta_mean_motion_ddot": 0,
        "tle_line1": "1 33860U 97051AD  25348.15876847  .00006818  00000+0  12019-2 0  9997",
        "tle_line2": "2 33860  86.3831  26.6098 0007227 352.9674  65.2403 14.67394680887434"
      },
      "geometry": {
        "type": "Point",
        "coordinates": [
          -154.4634955220975,
          11.87860743871821
        ]
      }
    },
    {
      "type": "Feature",
      "properties": {
        "norad_id": 33862,
        "name": "IRIDIUM 33 DEB",
        "group": "iridium-33-debris",
        "lat": -39.62798341221532,
        "lon": -140.4245485752513,
        "alt_km": 703.8695317191987,
        "timestamp": "2025-12-14T20:40:32.157364+00:00",
        "meta_object_name": "IRIDIUM 33 DEB",
        "meta_object_id": "1997-051AF",
        "meta_epoch": "2025-12-14T05:17:19.740768",
        "meta_mean_motion": 14.6951242,
        "meta_eccentricity": 0.00532988,
        "meta_inclination": 86.4093,
        "meta_ra_of_asc_node": 36.8774,
        "meta_arg_of_pericenter": 64.2068,
        "meta_mean_anomaly": 5.723,
        "meta_ephemeris_type": 0,
        "meta_classification_type": "U",
        "meta_norad_cat_id": 33862,
        "meta_element_set_no": 999,
        "meta_rev_at_epoch": 88845,
        "meta_bstar": 0.0014822233,
        "meta_mean_motion_dot": 9.009e-05,
        "meta_mean_motion_ddot": 0,
        "tle_line1": "1 33862U 97051AF  25348.22036737  .00009009  00000+0  14822-2 0  9992",
        "tle_line2": "2 33862  86.4093  36.8774 0053298  64.2068   5.7230 14.69512420888456"
      },
      "geometry": {
        "type": "Point",
        "coordinates": [
          -140.4245485752513,
          -39.62798341221532
        ]
      }
    },
    {
      "type": "Feature",
      "properties": {
        "norad_id": 33866,
        "name": "IRIDIUM 33 DEB",
        "group": "iridium-33-debris",
        "lat": -51.95691241867703,
        "lon": 87.39393143100905,
        "alt_km": 887.9758214596559,
        "timestamp": "2025-12-14T20:40:32.157376+00:00",
        "meta_object_name": "IRIDIUM 33 DEB",
        "meta_object_id": "1997-051AK",
        "meta_epoch": "2025-12-14T07:42:10.912896",
        "meta_mean_motion": 14.25282579,
        "meta_eccentricity": 0.01146017,
        "meta_inclination": 86.2997,
        "meta_ra_of_asc_node": 92.3665,
        "meta_arg_of_pericenter": 156.3785,
        "meta_mean_anomaly": 259.2943,
        "meta_ephemeris_type": 0,
        "meta_classification_type": "U",
        "meta_norad_cat_id": 33866,
        "meta_element_set_no": 999,
        "meta_rev_at_epoch": 86833,
        "meta_bstar": 0.00080571503,
        "meta_mean_motion_dot": 2.049e-05,
        "meta_mean_motion_ddot": 0,
        "tle_line1": "1 33866U 97051AK  25348.32095964  .00002049  00000+0  80572-3 0  9997",
        "tle_line2": "2 33866  86.2997  92.3665 0114601 156.3785 259.2943 14.25282579868335"
      },
      "geometry": {
        "type": "Point",
        "coordinates": [
          87.39393143100905,
          -51.95691241867703
        ]
      }
    },
    {
      "type": "Feature",
      "properties": {
        "norad_id": 33867,
        "name": "IRIDIUM 33 DEB",
        "group": "iridium-33-debris",
        "lat": 5.677327612774391,
        "lon": -10.638449796387754,
        "alt_km": 353.90838153796994,
        "timestamp": "2025-12-14T20:40:32.157387+00:00",
        "meta_object_name": "IRIDIUM 33 DEB",
        "meta_object_id": "1997-051AL",
        "meta_epoch": "2025-12-14T06:53:51.823968",
        "meta_mean_motion": 15.71039359,
        "meta_eccentricity": 0.00132583,
        "meta_inclination": 86.3644,
        "meta_ra_of_asc_node": 349.299,
        "meta_arg_of_pericenter": 90.1436,
        "meta_mean_anomaly": 270.1354,
        "meta_ephemeris_type": 0,
        "meta_classification_type": "U",
        "meta_norad_cat_id": 33867,
        "meta_element_set_no": 999,
        "meta_rev_at_epoch": 89535,
        "meta_bstar": 0.0077013434,
        "meta_mean_motion_dot": 0.0107518,
        "meta_mean_motion_ddot": 0,
        "tle_line1": "1 33867U 97051AL  25348.28740537  .01075180  00000+0  77013-2 0  9998",
        "tle_line2": "2 33867  86.3644 349.2990 0013258  90.1436 270.1354 15.71039359895353"
      },
      "geometry": {
        "type": "Point",
        "coordinates": [
          -10.638449796387754,
          5.677327612774391
        ]
      }
    },
    {
      "type": "Feature",
      "properties": {
        "norad_id": 33870,
        "name": "IRIDIUM 33 DEB",
        "group": "iridium-33-debris",
        "lat": -23.276656019253867,
        "lon": -121.08591535527493,
        "alt_km": 731.6561283289739,
        "timestamp": "2025-12-14T20:40:32.157398+00:00",
        "meta_object_name": "IRIDIUM 33 DEB",
        "meta_object_id": "1997-051AP",
        "meta_epoch": "2025-12-14T05:02:13.504992",
        "meta_mean_motion": 14.45862861,
        "meta_eccentricity": 0.00216247,
        "meta_inclination": 86.3748,
        "meta_ra_of_asc_node": 57.6305,
        "meta_arg_of_pericenter": 173.3872,
        "meta_mean_anomaly": 240.1822,
        "meta_ephemeris_type": 0,
        "meta_classification_type": "U",
        "meta_norad_cat_id": 33870,
        "meta_element_set_no": 999,
        "meta_rev_at_epoch": 88158,
        "meta_bstar": 0.00088439902,
        "meta_mean_motion_dot": 3.168e-05,
        "meta_mean_motion_ddot": 0,
        "tle_line1": "1 33870U 97051AP  25348.20987853  .00003168  00000+0  88440-3 0  9991",
        "tle_line2": "2 33870  86.3748  57.6305 0021624 173.3872 240.1822 14.45862861881585"
      },
      "geometry": {
        "type": "Point",
        "coordinates": [
          -121.08591535527493,
          -23.276656019253867
        ]
      }
    },
    {
      "type": "Feature",
      "properties": {
        "norad_id": 33881,
        "name": "IRIDIUM 33 DEB",
        "group": "iridium-33-debris",
        "lat": 26.73960446605845,
        "lon": -76.00484884680284,
        "alt_km": 661.0341236780268,
        "timestamp": "2025-12-14T20:40:32.157409+00:00",
        "meta_object_name": "IRIDIUM 33 DEB",
        "meta_object_id": "1997-051BA",
        "meta_epoch": "2025-12-14T07:05:00.879648",
        "meta_mean_motion": 14.56616261,
        "meta_eccentricity": 0.00614646,
        "meta_inclination": 86.3857,
        "meta_ra_of_asc_node": 106.0662,
        "meta_arg_of_pericenter": 169.662,
        "meta_mean_anomaly": 255.7649,
        "meta_ephemeris_type": 0,
        "meta_classification_type": "U",
        "meta_norad_cat_id": 33881,
        "meta_element_set_no": 999,
        "meta_rev_at_epoch": 87523,
        "meta_bstar": 0.002305271,
        "meta_mean_motion_dot": 0.00010572,
        "meta_mean_motion_ddot": 0,
        "tle_line1": "1 33881U 97051BA  25348.29514907  .00010572  00000+0  23053-2 0  9993",
        "tle_line2": "2 33881  86.3857 106.0662 0061464 169.6620 255.7649 14.56616261875235"
      },
      "geometry": {
        "type": "Point",
        "coordinates": [
          -76.00484884680284,
          26.73960446605845
        ]
      }
    },
    {
      "type": "Feature",
      "properties": {
        "norad_id": 33884,
        "name": "IRIDIUM 33 DEB",
        "group": "iridium-33-debris",
        "lat": -78.35742329052722,
        "lon": -153.1953251262012,
        "alt_km": 641.0836124554071,
        "timestamp": "2025-12-14T20:40:32.157420+00:00",
        "meta_object_name": "IRIDIUM 33 DEB",
        "meta_object_id": "1997-051BD",
        "meta_epoch": "2025-12-14T08:11:32.925120",
        "meta_mean_motion": 14.77472237,
        "meta_eccentricity": 0.00095203,
        "meta_inclination": 86.3703,
        "meta_ra_of_asc_node": 9.096,
        "meta_arg_of_pericenter": 317.854,
        "meta_mean_anomaly": 56.4312,
        "meta_ephemeris_type": 0,
        "meta_classification_type": "U",
        "meta_norad_cat_id": 33884,
        "meta_element_set_no": 999,
        "meta_rev_at_epoch": 88871,
        "meta_bstar": 0.0015351824,
        "meta_mean_motion_dot": 0.00010976,
        "meta_mean_motion_ddot": 0,
        "tle_line1": "1 33884U 97051BD  25348.34135330  .00010976  00000+0  15352-2 0  9992",
        "tle_line2": "2 33884  86.3703   9.0960 0009520 317.8540  56.4312 14.77472237888710"
      },
      "geometry": {
        "type": "Point",
        "coordinates": [
          -153.1953251262012,
          -78.35742329052722
        ]
      }
    }
  ]
}